[{"OBJECT_NAME":"ISS (ZARYA)","OBJECT_ID":"1998-067A","EPOCH":"2026-03-10T03:48:27.800640","MEAN_MOTION":15.485572,"ECCENTRICITY":0.0007972,"INCLINATION":51.6324,"RA_OF_ASC_NODE":70.0375,"ARG_OF_PERICENTER":176.2903,"MEAN_ANOMALY":183.8146,"EPHEMERIS_TYPE":0,"CLASSIFICATION_TYPE":"U","NORAD_CAT_ID":25544,"ELEMENT_SET_NO":999,"REV_AT_EPOCH":55640,"BSTAR":0.00017626,"MEAN_MOTION_DOT":9.13e-5,"MEAN_MOTION_DDOT":0},{"OBJECT_NAME":"POISK","OBJECT_ID":"2009-060A","EPOCH":"2026-03-10T03:48:27.800640","MEAN_MOTION":15.485572,"ECCENTRICITY":0.0007972,"INCLINATION":51.6324,"RA_OF_ASC_NODE":70.0375,"ARG_OF_PERICENTER":176.2903,"MEAN_ANOMALY":183.8146,"EPHEMERIS_TYPE":0,"CLASSIFICATION_TYPE":"U","NORAD_CAT_ID":36086,"ELEMENT_SET_NO":999,"REV_AT_EPOCH":55613,"BSTAR":0.00017626,"MEAN_MOTION_DOT":9.13e-5,"MEAN_MOTION_DDOT":0},{"OBJECT_NAME":"CSS (TIANHE)","OBJECT_ID":"2021-035A","EPOCH":"2026-03-10T00:51:10.306080","MEAN_MOTION":15.60677472,"ECCENTRICITY":0.0006997,"INCLINATION":41.4664,"RA_OF_ASC_NODE":206.0569,"ARG_OF_PERICENTER":274.9746,"MEAN_ANOMALY":85.0294,"EPHEMERIS_TYPE":0,"CLASSIFICATION_TYPE":"U","NORAD_CAT_ID":48274,"ELEMENT_SET_NO":999,"REV_AT_EPOCH":27766,"BSTAR":0.00031825,"MEAN_MOTION_DOT":0.00026947,"MEAN_MOTION_DDOT":0},{"OBJECT_NAME":"ISS (NAUKA)","OBJECT_ID":"2021-066A","EPOCH":"2026-03-10T03:48:27.800640","MEAN_MOTION":15.485572,"ECCENTRICITY":0.0007972,"INCLINATION":51.6324,"RA_OF_ASC_NODE":70.0375,"ARG_OF_PERICENTER":176.2903,"MEAN_ANOMALY":183.8146,"EPHEMERIS_TYPE":0,"CLASSIFICATION_TYPE":"U","NORAD_CAT_ID":49044,"ELEMENT_SET_NO":999,"REV_AT_EPOCH":55617,"BSTAR":0.00017626,"MEAN_MOTION_DOT":9.13e-5,"MEAN_MOTION_DDOT":0},{"OBJECT_NAME":"FREGAT DEB","OBJECT_ID":"2011-037PF","EPOCH":"2026-03-10T00:08:35.693952","MEAN_MOTION":12.40187256,"ECCENTRICITY":0.0960172,"INCLINATION":51.6502,"RA_OF_ASC_NODE":299.8035,"ARG_OF_PERICENTER":60.1349,"MEAN_ANOMALY":309.1434,"EPHEMERIS_TYPE":0,"CLASSIFICATION_TYPE":"U","NORAD_CAT_ID":49271,"ELEMENT_SET_NO":999,"REV_AT_EPOCH":21273,"BSTAR":0.033892,"MEAN_MOTION_DOT":0.00023588,"MEAN_MOTION_DDOT":0},{"OBJECT_NAME":"CSS (WENTIAN)","OBJECT_ID":"2022-085A","EPOCH":"2026-03-10T00:51:10.306080","MEAN_MOTION":15.60677472,"ECCENTRICITY":0.0006997,"INCLINATION":41.4664,"RA_OF_ASC_NODE":206.0569,"ARG_OF_PERICENTER":274.9746,"MEAN_ANOMALY":85.0294,"EPHEMERIS_TYPE":0,"CLASSIFICATION_TYPE":"U","NORAD_CAT_ID":53239,"ELEMENT_SET_NO":999,"REV_AT_EPOCH":27742,"BSTAR":0.00031825,"MEAN_MOTION_DOT":0.00026947,"MEAN_MOTION_DDOT":0},{"OBJECT_NAME":"CSS (MENGTIAN)","OBJECT_ID":"2022-143A","EPOCH":"2026-03-10T00:51:10.306080","MEAN_MOTION":15.60677472,"ECCENTRICITY":0.0006997,"INCLINATION":41.4664,"RA_OF_ASC_NODE":206.0569,"ARG_OF_PERICENTER":274.9746,"MEAN_ANOMALY":85.0294,"EPHEMERIS_TYPE":0,"CLASSIFICATION_TYPE":"U","NORAD_CAT_ID":54216,"ELEMENT_SET_NO":999,"REV_AT_EPOCH":27739,"BSTAR":0.00031825,"MEAN_MOTION_DOT":0.00026947,"MEAN_MOTION_DDOT":0},{"OBJECT_NAME":"PROGRESS-MS 31","OBJECT_ID":"2025-146A","EPOCH":"2026-03-10T03:48:27.800640","MEAN_MOTION":15.485572,"ECCENTRICITY":0.0007972,"INCLINATION":51.6324,"RA_OF_ASC_NODE":70.0375,"ARG_OF_PERICENTER":176.2903,"MEAN_ANOMALY":183.8146,"EPHEMERIS_TYPE":0,"CLASSIFICATION_TYPE":"U","NORAD_CAT_ID":64751,"ELEMENT_SET_NO":999,"REV_AT_EPOCH":55621,"BSTAR":0.00017626,"MEAN_MOTION_DOT":9.13e-5,"MEAN_MOTION_DDOT":0},{"OBJECT_NAME":"TIANZHOU-9","OBJECT_ID":"2025-149A","EPOCH":"2026-03-10T00:51:10.306080","MEAN_MOTION":15.60677472,"ECCENTRICITY":0.0006997,"INCLINATION":41.4664,"RA_OF_ASC_NODE":206.0569,"ARG_OF_PERICENTER":274.9746,"MEAN_ANOMALY":85.0294,"EPHEMERIS_TYPE":0,"CLASSIFICATION_TYPE":"U","NORAD_CAT_ID":64786,"ELEMENT_SET_NO":999,"REV_AT_EPOCH":27740,"BSTAR":0.00031825,"MEAN_MOTION_DOT":0.00026947,"MEAN_MOTION_DDOT":0},{"OBJECT_NAME":"PROGRESS-MS 32","OBJECT_ID":"2025-204A","EPOCH":"2026-03-10T03:48:27.800640","MEAN_MOTION":15.485572,"ECCENTRICITY":0.0007972,"INCLINATION":51.6324,"RA_OF_ASC_NODE":70.0375,"ARG_OF_PERICENTER":176.2903,"MEAN_ANOMALY":183.8146,"EPHEMERIS_TYPE":0,"CLASSIFICATION_TYPE":"U","NORAD_CAT_ID":65586,"ELEMENT_SET_NO":999,"REV_AT_EPOCH":55633,"BSTAR":0.00017626,"MEAN_MOTION_DOT":9.13e-5,"MEAN_MOTION_DDOT":0},{"OBJECT_NAME":"CYGNUS NG-23","OBJECT_ID":"2025-208A","EPOCH":"2026-03-10T03:48:27.800640","MEAN_MOTION":15.485572,"ECCENTRICITY":0.0007972,"INCLINATION":51.6324,"RA_OF_ASC_NODE":70.0375,"ARG_OF_PERICENTER":176.2903,"MEAN_ANOMALY":183.8146,"EPHEMERIS_TYPE":0,"CLASSIFICATION_TYPE":"U","NORAD_CAT_ID":65616,"ELEMENT_SET_NO":999,"REV_AT_EPOCH":55637,"BSTAR":0.00017626,"MEAN_MOTION_DOT":9.13e-5,"MEAN_MOTION_DDOT":0},{"OBJECT_NAME":"ISS OBJECT XK","OBJECT_ID":"1998-067XK","EPOCH":"2026-03-09T00:12:34.522560","MEAN_MOTION":16.26334719,"ECCENTRICITY":0.00020465,"INCLINATION":51.6098,"RA_OF_ASC_NODE":49.3843,"ARG_OF_PERICENTER":160.9166,"MEAN_ANOMALY":199.1931,"EPHEMERIS_TYPE":0,"CLASSIFICATION_TYPE":"U","NORAD_CAT_ID":65731,"ELEMENT_SET_NO":999,"REV_AT_EPOCH":2679,"BSTAR":0.0012448899,"MEAN_MOTION_DOT":0.04180882,"MEAN_MOTION_DDOT":1.200013e-5},{"OBJECT_NAME":"YOTSUBA-KULOVER","OBJECT_ID":"1998-067XN","EPOCH":"2026-03-10T03:33:28.454400","MEAN_MOTION":15.80743996,"ECCENTRICITY":0.0005439,"INCLINATION":51.6218,"RA_OF_ASC_NODE":54.9144,"ARG_OF_PERICENTER":70.0426,"MEAN_ANOMALY":290.1161,"EPHEMERIS_TYPE":0,"CLASSIFICATION_TYPE":"U","NORAD_CAT_ID":65941,"ELEMENT_SET_NO":999,"REV_AT_EPOCH":2357,"BSTAR":0.0012778,"MEAN_MOTION_DOT":0.00258279,"MEAN_MOTION_DDOT":0},{"OBJECT_NAME":"E-KAGAKU-1","OBJECT_ID":"1998-067XQ","EPOCH":"2026-03-10T05:11:05.565696","MEAN_MOTION":15.80419644,"ECCENTRICITY":0.0005848,"INCLINATION":51.6235,"RA_OF_ASC_NODE":54.6346,"ARG_OF_PERICENTER":77.5025,"MEAN_ANOMALY":282.6631,"EPHEMERIS_TYPE":0,"CLASSIFICATION_TYPE":"U","NORAD_CAT_ID":65943,"ELEMENT_SET_NO":999,"REV_AT_EPOCH":2358,"BSTAR":0.0012874,"MEAN_MOTION_DOT":0.0025635,"MEAN_MOTION_DDOT":0},{"OBJECT_NAME":"HRC MONOBLOCK CAMERA","OBJECT_ID":"1998-067XR","EPOCH":"2026-03-10T03:33:19.033344","MEAN_MOTION":15.62255862,"ECCENTRICITY":0.0003668,"INCLINATION":51.6279,"RA_OF_ASC_NODE":63.2192,"ARG_OF_PERICENTER":93.4712,"MEAN_ANOMALY":266.6702,"EPHEMERIS_TYPE":0,"CLASSIFICATION_TYPE":"U","NORAD_CAT_ID":66052,"ELEMENT_SET_NO":999,"REV_AT_EPOCH":2246,"BSTAR":0.00071499,"MEAN_MOTION_DOT":0.00064287,"MEAN_MOTION_DDOT":0},{"OBJECT_NAME":"HTV-X1","OBJECT_ID":"2025-241A","EPOCH":"2026-03-09T16:57:57.785184","MEAN_MOTION":15.485472,"ECCENTRICITY":0.00080196,"INCLINATION":51.6323,"RA_OF_ASC_NODE":72.271,"ARG_OF_PERICENTER":174.6781,"MEAN_ANOMALY":185.4294,"EPHEMERIS_TYPE":0,"CLASSIFICATION_TYPE":"U","NORAD_CAT_ID":66174,"ELEMENT_SET_NO":999,"REV_AT_EPOCH":55447,"BSTAR":0.0001550955,"MEAN_MOTION_DOT":7.976e-5,"MEAN_MOTION_DDOT":0},{"OBJECT_NAME":"SZ-21 MODULE","OBJECT_ID":"2025-246C","EPOCH":"2026-03-08T17:40:24.022560","MEAN_MOTION":15.68463397,"ECCENTRICITY":0.00013651,"INCLINATION":41.4736,"RA_OF_ASC_NODE":209.2286,"ARG_OF_PERICENTER":296.9264,"MEAN_ANOMALY":63.1439,"EPHEMERIS_TYPE":0,"CLASSIFICATION_TYPE":"U","NORAD_CAT_ID":66515,"ELEMENT_SET_NO":999,"REV_AT_EPOCH":1792,"BSTAR":0.0004111263,"MEAN_MOTION_DOT":0.00047754,"MEAN_MOTION_DDOT":0}]
