{"fetched_at": "2026-03-10T12:39:04.751901+00:00", "count": 377, "satellites": [ {"name": "ISS (ZARYA)", "tle1": "1 25544U 98067A   26069.15865510  .00009130  00000+0  17626-3 0  9991", "tle2": "2 25544  51.6324  70.0375 0007972 176.2903 183.8146 15.48557200556406", "norad_id": 25544, "group": "stations", "highlight": true}, {"name": "POISK", "tle1": "1 36086U 09060A   26069.15865510  .00009130  00000+0  17626-3 0  9999", "tle2": "2 36086  51.6324  70.0375 0007972 176.2903 183.8146 15.48557200556139", "norad_id": 36086, "group": "stations", "highlight": false}, {"name": "CSS (TIANHE)", "tle1": "1 48274U 21035A   26069.03553595  .00026947  00000+0  31825-3 0  9993", "tle2": "2 48274  41.4664 206.0569 0006997 274.9746  85.0294 15.60677472277661", "norad_id": 48274, "group": "stations", "highlight": false}, {"name": "ISS (NAUKA)", "tle1": "1 49044U 21066A   26069.15865510  .00009130  00000+0  17626-3 0  9997", "tle2": "2 49044  51.6324  70.0375 0007972 176.2903 183.8146 15.48557200556171", "norad_id": 49044, "group": "stations", "highlight": true}, {"name": "FREGAT DEB", "tle1": "1 49271U 11037PF  26069.00596868  .00023588  00000+0  33892-1 0  9991", "tle2": "2 49271  51.6502 299.8035 0960172  60.1349 309.1434 12.40187256212733", "norad_id": 49271, "group": "stations", "highlight": false}, {"name": "CSS (WENTIAN)", "tle1": "1 53239U 22085A   26069.03553595  .00026947  00000+0  31825-3 0  9996", "tle2": "2 53239  41.4664 206.0569 0006997 274.9746  85.0294 15.60677472277422", "norad_id": 53239, "group": "stations", "highlight": false}, {"name": "CSS (MENGTIAN)", "tle1": "1 54216U 22143A   26069.03553595  .00026947  00000+0  31825-3 0  9997", "tle2": "2 54216  41.4664 206.0569 0006997 274.9746  85.0294 15.60677472277394", "norad_id": 54216, "group": "stations", "highlight": false}, {"name": "PROGRESS-MS 31", "tle1": "1 64751U 25146A   26069.15865510  .00009130  00000+0  17626-3 0  9992", "tle2": "2 64751  51.6324  70.0375 0007972 176.2903 183.8146 15.48557200556218", "norad_id": 64751, "group": "stations", "highlight": false}, {"name": "TIANZHOU-9", "tle1": "1 64786U 25149A   26069.03553595  .00026947  00000+0  31825-3 0  9999", "tle2": "2 64786  41.4664 206.0569 0006997 274.9746  85.0294 15.60677472277409", "norad_id": 64786, "group": "stations", "highlight": false}, {"name": "PROGRESS-MS 32", "tle1": "1 65586U 25204A   26069.15865510  .00009130  00000+0  17626-3 0  9994", "tle2": "2 65586  51.6324  70.0375 0007972 176.2903 183.8146 15.48557200556338", "norad_id": 65586, "group": "stations", "highlight": false}, {"name": "CYGNUS NG-23", "tle1": "1 65616U 25208A   26069.15865510  .00009130  00000+0  17626-3 0  9992", "tle2": "2 65616  51.6324  70.0375 0007972 176.2903 183.8146 15.48557200556376", "norad_id": 65616, "group": "stations", "highlight": false}, {"name": "ISS OBJECT XK", "tle1": "1 65731U 98067XK  26068.00873290  .04180882  12000-4  12449-2 0  9993", "tle2": "2 65731  51.6098  49.3843 0002046 160.9166 199.1931 16.26334719 26794", "norad_id": 65731, "group": "stations", "highlight": true}, {"name": "YOTSUBA-KULOVER", "tle1": "1 65941U 98067XN  26069.14824600  .00258279  00000+0  12778-2 0  9992", "tle2": "2 65941  51.6218  54.9144 0005439  70.0426 290.1161 15.80743996 23576", "norad_id": 65941, "group": "stations", "highlight": false}, {"name": "E-KAGAKU-1", "tle1": "1 65943U 98067XQ  26069.21603664  .00256350  00000+0  12874-2 0  9992", "tle2": "2 65943  51.6235  54.6346 0005848  77.5025 282.6631 15.80419644 23588", "norad_id": 65943, "group": "stations", "highlight": false}, {"name": "HRC MONOBLOCK CAMERA", "tle1": "1 66052U 98067XR  26069.14813696  .00064287  00000+0  71499-3 0  9999", "tle2": "2 66052  51.6279  63.2192 0003668  93.4712 266.6702 15.62255862 22468", "norad_id": 66052, "group": "stations", "highlight": false}, {"name": "HTV-X1", "tle1": "1 66174U 25241A   26068.70691881  .00007976  00000+0  15510-3 0  9993", "tle2": "2 66174  51.6323  72.2710 0008019 174.6781 185.4294 15.48547200554471", "norad_id": 66174, "group": "stations", "highlight": false}, {"name": "SZ-21 MODULE", "tle1": "1 66515U 25246C   26067.73638915  .00047754  00000+0  41113-3 0  9994", "tle2": "2 66515  41.4736 209.2286 0001365 296.9264  63.1439 15.68463397 17929", "norad_id": 66515, "group": "stations", "highlight": false}]}